COMMENT,ORIGINATOR,NORAD_CAT_ID,OBJECT_NAME,OBJECT_TYPE,CLASSIFICATION_TYPE,INTLDES,EPOCH,EPOCH_MICROSECONDS,MEAN_MOTION,ECCENTRICITY,INCLINATION,RA_OF_ASC_NODE,ARG_OF_PERICENTER,MEAN_ANOMALY,EPHEMERIS_TYPE,ELEMENT_SET_NO,REV_AT_EPOCH,BSTAR,MEAN_MOTION_DOT,MEAN_MOTION_DDOT,FILE,TLE_LINE0,TLE_LINE1,TLE_LINE2,OBJECT_ID,OBJECT_NUMBER,SEMIMAJOR_AXIS,PERIOD,APOGEE,PERIGEE,DECAYED,date
GENERATED VIA SPACETRACK.ORG API,18 SPCS,48883,SPACEBEE-100,PAYLOAD,U,21059E,2023/4/22 8:42,576800,15.28308666,0.0007264,97.5872,247.9799,114.1971,246.0028,0,999,10085,0.0014361,0.00039719,0,3892285,0 SPACEBEE-100,1 48883U 21059E   23112.36251825  .00039719  00000-0  14361-2 0  9995,2 48883  97.5872 247.9799 0007264 114.1971 246.0028 15.28308666100852,2021-059E,48883,6859.005,94.222,485.852,475.888,0,
GENERATED VIA SPACETRACK.ORG API,18 SPCS,48883,SPACEBEE-100,PAYLOAD,U,21059E,2023/4/23 8:16,640448,15.28377636,0.0007146,97.5873,248.9802,110.8087,249.3918,0,999,10100,0.0012427,0.00034407,0,3892688,0 SPACEBEE-100,1 48883U 21059E   23113.34460232  .00034407  00000-0  12427-2 0  9998,2 48883  97.5873 248.9802 0007146 110.8087 249.3918 15.28377636101004,2021-059E,48883,6858.799,94.218,485.565,475.762,0,
GENERATED VIA SPACETRACK.ORG API,18 SPCS,48883,SPACEBEE-100,PAYLOAD,U,21059E,2023/4/24 7:50,823360,15.28540928,0.0007105,97.5875,249.9807,107.8543,252.3472,0,999,10115,0.0045517,0.00128451,0,3893234,0 SPACEBEE-100,1 48883U 21059E   23114.32662990  .00128451  00000-0  45517-2 0  9991,2 48883  97.5875 249.9807 0007105 107.8543 252.3472 15.28540928101151,2021-059E,48883,6858.31,94.207,485.048,475.302,0,
GENERATED VIA SPACETRACK.ORG API,18 SPCS,48883,SPACEBEE-100,PAYLOAD,U,21059E,2023/4/24 7:50,823360,15.28540928,0.0007105,97.5875,249.9807,107.8543,252.3472,0,999,10115,0.0045517,0.00128451,0,3893330,0 SPACEBEE-100,1 48883U 21059E   23114.32662990  .00128451  00000-0  45517-2 0  9991,2 48883  97.5875 249.9807 0007105 107.8543 252.3472 15.28540928101151,2021-059E,48883,6858.31,94.207,485.048,475.302,0,
GENERATED VIA SPACETRACK.ORG API,18 SPCS,48883,SPACEBEE-100,PAYLOAD,U,21059E,2023/4/25 4:15,76288,15.28570883,0.0007117,97.5873,250.8474,104.8199,255.3829,0,999,10128,0.0013487,0.00037585,0,3893771,0 SPACEBEE-100,1 48883U 21059E   23115.17766292  .00037585  00000-0  13487-2 0  9993,2 48883  97.5873 250.8474 0007117 104.8199 255.3829 15.28570883101283,2021-059E,48883,6858.221,94.206,484.967,475.205,0,
GENERATED VIA SPACETRACK.ORG API,18 SPCS,48883,SPACEBEE-100,PAYLOAD,U,21059E,2023/4/25 8:58,878528,15.28584761,0.0007133,97.5873,251.0475,104.2063,255.9969,0,999,10131,0.0012297,0.00034261,0,3894092,0 SPACEBEE-100,1 48883U 21059E   23115.37404952  .00034261  00000-0  12297-2 0  9993,2 48883  97.5873 251.0475 0007133 104.2063 255.9969 15.28584761101314,2021-059E,48883,6858.179,94.205,484.936,475.152,0,
GENERATED VIA SPACETRACK.ORG API,18 SPCS,48883,SPACEBEE-100,PAYLOAD,U,21059E,2023/4/26 8:32,282688,15.28635789,0.0007086,97.5872,252.0482,101.1576,259.046,0,999,10146,0.0010352,0.00028854,0,3894260,0 SPACEBEE-100,1 48883U 21059E   23116.35596392  .00028854  00000-0  10352-2 0  9993,2 48883  97.5872 252.0482 0007086 101.1576 259.0460 15.28635789101468,2021-059E,48883,6858.027,94.202,484.751,475.032,0,
GENERATED VIA SPACETRACK.ORG API,18 SPCS,48883,SPACEBEE-100,PAYLOAD,U,21059E,2023/4/26 14:49,72928,15.28649931,0.0007089,97.5871,252.315,100.2737,259.9302,0,999,10150,0.0010202,0.00028445,0,3894261,0 SPACEBEE-100,1 48883U 21059E   23116.61780177  .00028445  00000-0  10202-2 0  9998,2 48883  97.5871 252.3150 0007089 100.2737 259.9302 15.28649931101507,2021-059E,48883,6857.984,94.201,484.711,474.988,0,
GENERATED VIA SPACETRACK.ORG API,18 SPCS,48883,SPACEBEE-100,PAYLOAD,U,21059E,2023/4/27 8:06,534976,15.28695121,0.0006955,97.5872,253.0488,97.6889,262.514,0,999,10161,0.0011314,0.0003161,0,3894751,0 SPACEBEE-100,1 48883U 21059E   23117.33784184  .00031610  00000-0  11314-2 0  9993,2 48883  97.5872 253.0488 0006955  97.6889 262.5140 15.28695121101612,2021-059E,48883,6857.849,94.198,484.484,474.944,0,
GENERATED VIA SPACETRACK.ORG API,18 SPCS,48883,SPACEBEE-100,PAYLOAD,U,21059E,2023/4/27 20:40,983968,15.28733852,0.0006934,97.5872,253.5825,96.0846,264.1184,0,999,10169,0.0012693,0.00035533,0,3894918,0 SPACEBEE-100,1 48883U 21059E   23117.86149287  .00035533  00000-0  12693-2 0  9999,2 48883  97.5872 253.5825 0006934  96.0846 264.1184 15.28733852101693,2021-059E,48883,6857.733,94.196,484.353,474.843,0,
GENERATED VIA SPACETRACK.ORG API,18 SPCS,48883,SPACEBEE-100,PAYLOAD,U,21059E,2023/4/28 7:40,180928,15.28760362,0.0006923,97.5872,254.0499,94.236,265.9671,0,999,10176,0.0010857,0.00030386,0,3895770,0 SPACEBEE-100,1 48883U 21059E   23118.31967802  .00030386  00000-0  10857-2 0  9992,2 48883  97.5872 254.0499 0006923  94.2360 265.9671 15.28760362101769,2021-059E,48883,6857.654,94.194,484.266,474.771,0,
GENERATED VIA SPACETRACK.ORG API,18 SPCS,48883,SPACEBEE-100,PAYLOAD,U,21059E,2023/4/28 7:40,180928,15.28760362,0.0006923,97.5872,254.0499,94.236,265.9671,0,999,10176,0.0010857,0.00030386,0,3895926,0 SPACEBEE-100,1 48883U 21059E   23118.31967802  .00030386  00000-0  10857-2 0  9992,2 48883  97.5872 254.0499 0006923  94.2360 265.9671 15.28760362101769,2021-059E,48883,6857.654,94.194,484.266,474.771,0,
GENERATED VIA SPACETRACK.ORG API,18 SPCS,48883,SPACEBEE-100,PAYLOAD,U,21059E,2023/4/29 8:48,186944,15.28831138,0.0006932,97.5871,255.1171,91.144,269.0594,0,999,10192,0.0011325,0.00031773,0,3896480,0 SPACEBEE-100,1 48883U 21059E   23119.36692346  .00031773  00000-0  11325-2 0  9998,2 48883  97.5871 255.1171 0006932  91.1440 269.0594 15.28831138101929,2021-059E,48883,6857.442,94.19,484.061,474.554,0,
GENERATED VIA SPACETRACK.ORG API,18 SPCS,48883,SPACEBEE-100,PAYLOAD,U,21059E,2023/4/29 8:48,186944,15.28831138,0.0006932,97.5871,255.1171,91.144,269.0594,0,999,10192,0.0011325,0.00031773,0,3896517,0 SPACEBEE-100,1 48883U 21059E   23119.36692346  .00031773  00000-0  11325-2 0  9998,2 48883  97.5871 255.1171 0006932  91.1440 269.0594 15.28831138101929,2021-059E,48883,6857.442,94.19,484.061,474.554,0,
GENERATED VIA SPACETRACK.ORG API,18 SPCS,48883,SPACEBEE-100,PAYLOAD,U,21059E,2023/4/30 8:22,273760,15.28896523,0.0006846,97.587,256.1179,87.8888,272.3135,0,999,10207,0.0011018,0.00030968,0,3897442,0 SPACEBEE-100,1 48883U 21059E   23120.34867215  .00030968  00000-0  11018-2 0  9991,2 48883  97.5870 256.1179 0006846  87.8888 272.3135 15.28896523102073,2021-059E,48883,6857.247,94.186,483.806,474.417,0,
GENERATED VIA SPACETRACK.ORG API,18 SPCS,48883,SPACEBEE-100,PAYLOAD,U,21059E,2023/4/30 20:56,882976,15.28926443,0.0006809,97.5871,256.6516,86.1318,274.07,0,999,10215,0.00097517,0.00027412,0,3897631,0 SPACEBEE-100,1 48883U 21059E   23120.87225559  .00027412  00000-0  97517-3 0  9997,2 48883  97.5871 256.6516 0006809  86.1318 274.0700 15.28926443102154,2021-059E,48883,6857.157,94.184,483.691,474.353,0,
